ORBCOMM FM103           
1 40091U 14040F   25019.89112178  .00001998  00000+0  47017-3 0  9995
2 40091  47.0071 357.9363 0002692 315.5031  44.5638 14.57709900542461
ORBCOMM FM119           
1 41180U 15081B   25019.76117781  .00001779  00000+0  42277-3 0  9992
2 41180  46.9992 176.9459 0000730 142.8833 217.2103 14.57681621484064
ORBCOMM FM105           
1 41181U 15081C   25019.78099066  .00000883  00000+0  29579-3 0  9995
2 41181  47.0002 167.4849 0001284 351.4694   8.6164 14.44978286479284
ORBCOMM FM110           
1 41182U 15081D   25019.89305218  .00001956  00000+0  45977-3 0  9999
2 41182  47.0015 266.4353 0001520 185.2522 174.8348 14.57834296482702
ORBCOMM FM118           
1 41183U 15081E   25019.73758843  .00001920  00000+0  45259-3 0  9993
2 41183  47.0039 267.5746 0001962 180.3556 179.7328 14.57759680482783
ORBCOMM FM112           
1 41184U 15081F   25019.80618040  .00002534  00000+0  58672-3 0  9991
2 41184  46.9968 175.9053 0000069 134.0620 226.0271 14.57662488484011
ORBCOMM FM113           
1 41185U 15081G   25019.85155403  .00002788  00000+0  64084-3 0  9991
2 41185  46.9985 175.9935 0000763 153.7842 206.3082 14.57746749484008
