<?xml version="1.0" encoding="UTF-8"?>
<ndm xmlns:xsi="http://www.w3.org/2001/XMLSchema-instance" xsi:noNamespaceSchemaLocation="https://sanaregistry.org/r/ndmxml_unqualified/ndmxml-2.0.0-master-2.0.xsd">
<omm id="CCSDS_OMM_VERS" version="2.0">
<header><CREATION_DATE/><ORIGINATOR/></header><body><segment><metadata><OBJECT_NAME>ORBCOMM FM103</OBJECT_NAME><OBJECT_ID>2014-040F</OBJECT_ID><CENTER_NAME>EARTH</CENTER_NAME><REF_FRAME>TEME</REF_FRAME><TIME_SYSTEM>UTC</TIME_SYSTEM><MEAN_ELEMENT_THEORY>SGP4</MEAN_ELEMENT_THEORY></metadata><data><meanElements><EPOCH>2025-01-19T21:23:12.921792</EPOCH><MEAN_MOTION>14.57709900</MEAN_MOTION><ECCENTRICITY>.0002692</ECCENTRICITY><INCLINATION>47.0071</INCLINATION><RA_OF_ASC_NODE>357.9363</RA_OF_ASC_NODE><ARG_OF_PERICENTER>315.5031</ARG_OF_PERICENTER><MEAN_ANOMALY>44.5638</MEAN_ANOMALY></meanElements><tleParameters><EPHEMERIS_TYPE>0</EPHEMERIS_TYPE><CLASSIFICATION_TYPE>U</CLASSIFICATION_TYPE><NORAD_CAT_ID>40091</NORAD_CAT_ID><ELEMENT_SET_NO>999</ELEMENT_SET_NO><REV_AT_EPOCH>54246</REV_AT_EPOCH><BSTAR>.47017E-3</BSTAR><MEAN_MOTION_DOT>.1998E-4</MEAN_MOTION_DOT><MEAN_MOTION_DDOT>0</MEAN_MOTION_DDOT></tleParameters></data></segment></body></omm>
<omm id="CCSDS_OMM_VERS" version="2.0">
<header><CREATION_DATE/><ORIGINATOR/></header><body><segment><metadata><OBJECT_NAME>ORBCOMM FM119</OBJECT_NAME><OBJECT_ID>2015-081B</OBJECT_ID><CENTER_NAME>EARTH</CENTER_NAME><REF_FRAME>TEME</REF_FRAME><TIME_SYSTEM>UTC</TIME_SYSTEM><MEAN_ELEMENT_THEORY>SGP4</MEAN_ELEMENT_THEORY></metadata><data><meanElements><EPOCH>2025-01-19T18:16:05.762784</EPOCH><MEAN_MOTION>14.57681621</MEAN_MOTION><ECCENTRICITY>.000073</ECCENTRICITY><INCLINATION>46.9992</INCLINATION><RA_OF_ASC_NODE>176.9459</RA_OF_ASC_NODE><ARG_OF_PERICENTER>142.8833</ARG_OF_PERICENTER><MEAN_ANOMALY>217.2103</MEAN_ANOMALY></meanElements><tleParameters><EPHEMERIS_TYPE>0</EPHEMERIS_TYPE><CLASSIFICATION_TYPE>U</CLASSIFICATION_TYPE><NORAD_CAT_ID>41180</NORAD_CAT_ID><ELEMENT_SET_NO>999</ELEMENT_SET_NO><REV_AT_EPOCH>48406</REV_AT_EPOCH><BSTAR>.42277E-3</BSTAR><MEAN_MOTION_DOT>.1779E-4</MEAN_MOTION_DOT><MEAN_MOTION_DDOT>0</MEAN_MOTION_DDOT></tleParameters></data></segment></body></omm>
<omm id="CCSDS_OMM_VERS" version="2.0">
<header><CREATION_DATE/><ORIGINATOR/></header><body><segment><metadata><OBJECT_NAME>ORBCOMM FM105</OBJECT_NAME><OBJECT_ID>2015-081C</OBJECT_ID><CENTER_NAME>EARTH</CENTER_NAME><REF_FRAME>TEME</REF_FRAME><TIME_SYSTEM>UTC</TIME_SYSTEM><MEAN_ELEMENT_THEORY>SGP4</MEAN_ELEMENT_THEORY></metadata><data><meanElements><EPOCH>2025-01-19T18:44:37.593024</EPOCH><MEAN_MOTION>14.44978286</MEAN_MOTION><ECCENTRICITY>.0001284</ECCENTRICITY><INCLINATION>47.0002</INCLINATION><RA_OF_ASC_NODE>167.4849</RA_OF_ASC_NODE><ARG_OF_PERICENTER>351.4694</ARG_OF_PERICENTER><MEAN_ANOMALY>8.6164</MEAN_ANOMALY></meanElements><tleParameters><EPHEMERIS_TYPE>0</EPHEMERIS_TYPE><CLASSIFICATION_TYPE>U</CLASSIFICATION_TYPE><NORAD_CAT_ID>41181</NORAD_CAT_ID><ELEMENT_SET_NO>999</ELEMENT_SET_NO><REV_AT_EPOCH>47928</REV_AT_EPOCH><BSTAR>.29579E-3</BSTAR><MEAN_MOTION_DOT>.883E-5</MEAN_MOTION_DOT><MEAN_MOTION_DDOT>0</MEAN_MOTION_DDOT></tleParameters></data></segment></body></omm>
<omm id="CCSDS_OMM_VERS" version="2.0">
<header><CREATION_DATE/><ORIGINATOR/></header><body><segment><metadata><OBJECT_NAME>ORBCOMM FM110</OBJECT_NAME><OBJECT_ID>2015-081D</OBJECT_ID><CENTER_NAME>EARTH</CENTER_NAME><REF_FRAME>TEME</REF_FRAME><TIME_SYSTEM>UTC</TIME_SYSTEM><MEAN_ELEMENT_THEORY>SGP4</MEAN_ELEMENT_THEORY></metadata><data><meanElements><EPOCH>2025-01-19T21:25:59.708352</EPOCH><MEAN_MOTION>14.57834296</MEAN_MOTION><ECCENTRICITY>.000152</ECCENTRICITY><INCLINATION>47.0015</INCLINATION><RA_OF_ASC_NODE>266.4353</RA_OF_ASC_NODE><ARG_OF_PERICENTER>185.2522</ARG_OF_PERICENTER><MEAN_ANOMALY>174.8348</MEAN_ANOMALY></meanElements><tleParameters><EPHEMERIS_TYPE>0</EPHEMERIS_TYPE><CLASSIFICATION_TYPE>U</CLASSIFICATION_TYPE><NORAD_CAT_ID>41182</NORAD_CAT_ID><ELEMENT_SET_NO>999</ELEMENT_SET_NO><REV_AT_EPOCH>48270</REV_AT_EPOCH><BSTAR>.45977E-3</BSTAR><MEAN_MOTION_DOT>.1956E-4</MEAN_MOTION_DOT><MEAN_MOTION_DDOT>0</MEAN_MOTION_DDOT></tleParameters></data></segment></body></omm>
<omm id="CCSDS_OMM_VERS" version="2.0">
<header><CREATION_DATE/><ORIGINATOR/></header><body><segment><metadata><OBJECT_NAME>ORBCOMM FM118</OBJECT_NAME><OBJECT_ID>2015-081E</OBJECT_ID><CENTER_NAME>EARTH</CENTER_NAME><REF_FRAME>TEME</REF_FRAME><TIME_SYSTEM>UTC</TIME_SYSTEM><MEAN_ELEMENT_THEORY>SGP4</MEAN_ELEMENT_THEORY></metadata><data><meanElements><EPOCH>2025-01-19T17:42:07.640352</EPOCH><MEAN_MOTION>14.57759680</MEAN_MOTION><ECCENTRICITY>.0001962</ECCENTRICITY><INCLINATION>47.0039</INCLINATION><RA_OF_ASC_NODE>267.5746</RA_OF_ASC_NODE><ARG_OF_PERICENTER>180.3556</ARG_OF_PERICENTER><MEAN_ANOMALY>179.7328</MEAN_ANOMALY></meanElements><tleParameters><EPHEMERIS_TYPE>0</EPHEMERIS_TYPE><CLASSIFICATION_TYPE>U</CLASSIFICATION_TYPE><NORAD_CAT_ID>41183</NORAD_CAT_ID><ELEMENT_SET_NO>999</ELEMENT_SET_NO><REV_AT_EPOCH>48278</REV_AT_EPOCH><BSTAR>.45259E-3</BSTAR><MEAN_MOTION_DOT>.192E-4</MEAN_MOTION_DOT><MEAN_MOTION_DDOT>0</MEAN_MOTION_DDOT></tleParameters></data></segment></body></omm>
<omm id="CCSDS_OMM_VERS" version="2.0">
<header><CREATION_DATE/><ORIGINATOR/></header><body><segment><metadata><OBJECT_NAME>ORBCOMM FM112</OBJECT_NAME><OBJECT_ID>2015-081F</OBJECT_ID><CENTER_NAME>EARTH</CENTER_NAME><REF_FRAME>TEME</REF_FRAME><TIME_SYSTEM>UTC</TIME_SYSTEM><MEAN_ELEMENT_THEORY>SGP4</MEAN_ELEMENT_THEORY></metadata><data><meanElements><EPOCH>2025-01-19T19:20:53.986560</EPOCH><MEAN_MOTION>14.57662488</MEAN_MOTION><ECCENTRICITY>.0000069</ECCENTRICITY><INCLINATION>46.9968</INCLINATION><RA_OF_ASC_NODE>175.9053</RA_OF_ASC_NODE><ARG_OF_PERICENTER>134.0620</ARG_OF_PERICENTER><MEAN_ANOMALY>226.0271</MEAN_ANOMALY></meanElements><tleParameters><EPHEMERIS_TYPE>0</EPHEMERIS_TYPE><CLASSIFICATION_TYPE>U</CLASSIFICATION_TYPE><NORAD_CAT_ID>41184</NORAD_CAT_ID><ELEMENT_SET_NO>999</ELEMENT_SET_NO><REV_AT_EPOCH>48401</REV_AT_EPOCH><BSTAR>.58672E-3</BSTAR><MEAN_MOTION_DOT>.2534E-4</MEAN_MOTION_DOT><MEAN_MOTION_DDOT>0</MEAN_MOTION_DDOT></tleParameters></data></segment></body></omm>
<omm id="CCSDS_OMM_VERS" version="2.0">
<header><CREATION_DATE/><ORIGINATOR/></header><body><segment><metadata><OBJECT_NAME>ORBCOMM FM113</OBJECT_NAME><OBJECT_ID>2015-081G</OBJECT_ID><CENTER_NAME>EARTH</CENTER_NAME><REF_FRAME>TEME</REF_FRAME><TIME_SYSTEM>UTC</TIME_SYSTEM><MEAN_ELEMENT_THEORY>SGP4</MEAN_ELEMENT_THEORY></metadata><data><meanElements><EPOCH>2025-01-19T20:26:14.268192</EPOCH><MEAN_MOTION>14.57746749</MEAN_MOTION><ECCENTRICITY>.0000763</ECCENTRICITY><INCLINATION>46.9985</INCLINATION><RA_OF_ASC_NODE>175.9935</RA_OF_ASC_NODE><ARG_OF_PERICENTER>153.7842</ARG_OF_PERICENTER><MEAN_ANOMALY>206.3082</MEAN_ANOMALY></meanElements><tleParameters><EPHEMERIS_TYPE>0</EPHEMERIS_TYPE><CLASSIFICATION_TYPE>U</CLASSIFICATION_TYPE><NORAD_CAT_ID>41185</NORAD_CAT_ID><ELEMENT_SET_NO>999</ELEMENT_SET_NO><REV_AT_EPOCH>48400</REV_AT_EPOCH><BSTAR>.64084E-3</BSTAR><MEAN_MOTION_DOT>.2788E-4</MEAN_MOTION_DOT><MEAN_MOTION_DDOT>0</MEAN_MOTION_DDOT></tleParameters></data></segment></body></omm>

</ndm>
